[{"OBJECT_NAME":"STARLINK-5340","OBJECT_ID":"2023-065D","EPOCH":"2026-03-08T17:11:51.141696","MEAN_MOTION":15.02532681,"ECCENTRICITY":0.00012898,"INCLINATION":43.0035,"RA_OF_ASC_NODE":203.0212,"ARG_OF_PERICENTER":264.8882,"MEAN_ANOMALY":95.1813,"EPHEMERIS_TYPE":0,"CLASSIFICATION_TYPE":"U","NORAD_CAT_ID":56506,"ELEMENT_SET_NO":999,"REV_AT_EPOCH":15662,"BSTAR":5.703747e-6,"MEAN_MOTION_DOT":-1.27e-6,"MEAN_MOTION_DDOT":0},{"OBJECT_NAME":"COSMOS 2251 DEB","OBJECT_ID":"1993-036BKG","EPOCH":"2026-03-09T09:02:46.626720","MEAN_MOTION":15.0055284,"ECCENTRICITY":0.00290136,"INCLINATION":74.0178,"RA_OF_ASC_NODE":205.5033,"ARG_OF_PERICENTER":262.6992,"MEAN_ANOMALY":97.0897,"EPHEMERIS_TYPE":0,"CLASSIFICATION_TYPE":"U","NORAD_CAT_ID":37316,"ELEMENT_SET_NO":999,"REV_AT_EPOCH":87440,"BSTAR":0.002851028,"MEAN_MOTION_DOT":0.00036448,"MEAN_MOTION_DDOT":0}]
